NINGXIA-1 5             
1 44783U 19076E   23341.83053394 -.00000043  00000+0  56658-4 0  9998
2 44783  45.0080 340.2779 0010003 101.5033 258.6925 14.01835682208436
KL-ALPHA A              
1 44785U 19077A   23341.57439668  .00000076  00000+0  91859-4 0  9991
2 44785  88.9149 324.8750 0009058 281.1696  78.8439 13.55887476200705
CARTOSAT-3              
1 44804U 19081A   23341.78044877  .00004105  00000+0  19782-3 0  9996
2 44804  97.4314  34.8501 0012068 128.3450 231.8871 15.19220840223370
FLOCK 4P-7              
1 44816U 19081N   23341.15594074  .00162743  00000+0  15642-2 0  9992
2 44816  97.3316  55.5140 0003439 356.5561   3.5675 15.66058045224693
FLOCK 4P-5              
1 44818U 19081Q   23341.20311560  .00048275  00000+0  64153-3 0  9992
2 44818  97.3366  54.3953 0005700  76.8531 283.3360 15.58047184224626
JILIN-1 GAOFEN 2B       
1 44836U 19086A   23341.78605663  .00005925  00000+0  31626-3 0  9994
2 44836  97.6063  41.8414 0007662 319.8653  40.2012 15.15498707220635
TIANYI-16 (TY-16)       
1 44840U 19087C   23341.77220046  .00066163  00000+0  87414-3 0  9994
2 44840  97.5082 158.2849 0004773 141.6988 218.4607 15.58134699223138
TIANQI-4A               
1 44842U 19087E   23341.78412457  .00062796  00000+0  89468-3 0  9995
2 44842  97.4996 156.5512 0005343 137.9848 222.1817 15.56109902223152
TIANQI-4B               
1 44843U 19087F   23341.78699188  .00024576  00000+0  49713-3 0  9997
2 44843  97.5219 154.9039 0008529 161.1450 199.0117 15.46410684222936
TYVAK-0092              
1 44852U 19089A   23341.46028869  .00018286  00000+0  82631-3 0  9993
2 44852  36.9569 103.8997 0007199  26.1824 333.9287 15.20231520219276
TYVAK-0129              
1 44853U 19089B   23341.70573621  .00021383  00000+0  93457-3 0  9992
2 44853  36.9586 102.1655 0008015  25.1025 335.0112 15.21324427219426
DUCHIFAT-3              
1 44854U 19089C   23341.81979890  .00008543  00000+0  51685-3 0  9993
2 44854  36.9589 130.8016 0008373 314.4660  45.5400 15.10178384219054
ANGELS                  
1 44876U 19092D   23341.46947497  .00004989  00000+0  21056-3 0  9999
2 44876  97.4738 165.2416 0009167 281.6738  78.3470 15.23707538219981
OPS-SAT                 
1 44878U 19092F   23341.52881970  .00035525  00000+0  71084-3 0  9997
2 44878  97.4614 173.7841 0006394 228.5449 131.5252 15.46670162220462
TIANQIN 1 (CAS-6)       
1 44879U 19093A   23341.78835235  .00002552  00000+0  30210-3 0  9990
2 44879  97.8549  58.8605 0013061 221.4711 138.5514 14.85416235214617
ETRSS-1                 
1 44880U 19093B   23341.78172337  .00002733  00000+0  32224-3 0  9997
2 44880  97.8554  58.9340 0013290 223.4134 136.6035 14.85515216214602
TIANYAN 01              
1 44881U 19093C   23341.79449320  .00001035  00000+0  13349-3 0  9999
2 44881  97.8489  57.2155 0013545 228.1422 131.8637 14.83057539214524
TIANYAN 02              
1 44882U 19093D   23341.74818695  .00003436  00000+0  38586-3 0  9997
2 44882  97.8619  60.7305 0013917 221.8282 138.1872 14.87349073214660
CBERS 4A                
1 44883U 19093E   23341.75115097  .00001358  00000+0  17942-3 0  9999
2 44883  97.8512  56.9100 0000560 303.2912  56.8247 14.81608642214495
WEILAI 1R               
1 44884U 19093F   23341.78717009  .00003215  00000+0  36575-3 0  9991
2 44884  97.8546  60.0401 0011702 224.8024 135.2248 14.86879125214691
YUHENG                  
1 44885U 19093G   23341.80120883  .00003124  00000+0  34895-3 0  9995
2 44885  97.8579  61.1320 0012386 226.3299 133.6891 14.87644826214741
SHUNTIAN                
1 44886U 19093H   23341.78107607  .00002438  00000+0  28379-3 0  9999
2 44886  97.8623  61.5002 0013256 233.8442 126.1548 14.86142798214738
2019-093L               
1 44889U 19093L   23341.75636560  .00002656  00000+0  31898-3 0  9996
2 44889  97.8447  56.4282 0013841 217.0140 143.0121 14.84764588214423
ELEKTRO-L 3             
1 44903U 19095A   23341.85491348 -.00000070  00000+0  00000+0 0  9995
2 44903   0.0600 231.9329 0000896  11.8395 216.3413  1.00272883 14441
GONETS-M 14             
1 44905U 19096A   23341.54709076  .00000022  00000+0  86523-4 0  9999
2 44905  82.5219 296.6129 0014591  11.2985 348.8419 12.42905135179064
GONETS-M 15             
1 44906U 19096B   23341.81579775  .00000038  00000+0  20033-3 0  9991
2 44906  82.5241 296.7540 0016730  31.9629 328.2462 12.42904229179095
GONETS-M 16             
1 44907U 19096C   23341.52107100  .00000034  00000+0  17669-3 0  9996
2 44907  82.5185 296.3039 0012815  70.5548 289.6916 12.42899812179018
RS-44 & BREEZE-KM R/B   
1 44909U 19096E   23341.23885691  .00000018  00000+0  20333-4 0  9999
2 44909  82.5224 232.9474 0218013 142.1366 219.5299 12.79724291184295
JILIN-1 KUANFU 01       
1 45016U 20003A   23341.79075312  .00003795  00000+0  22065-3 0  9999
2 45016  97.6057  50.5098 0006186  30.3635 329.7952 15.12677515215971
XINGYUN-2 01            
1 45602U 20028A   23341.79391221  .00001366  00000+0  10215-3 0  9993
2 45602  97.4512 344.1421 0013228 122.2983 237.9527 15.04293858195802
XINGYUN-2 02            
1 45603U 20028B   23341.77947917  .00002381  00000+0  17501-3 0  9994
2 45603  97.5230 352.1538 0012676 184.0661 176.0465 15.04305439195807
HAIYANG-1D              
1 45721U 20036A   23341.78390454  .00000218  00000+0  93615-4 0  9991
2 45721  98.5710 278.7317 0002140 332.9954  27.1119 14.34170522182762
M2 PATHFINDER           
1 45727U 20037E   23341.45270827  .00002203  00000+0  20408-3 0  9998
2 45727  97.7641 154.2922 0012964  51.4757 308.7623 14.95454629187124
GAOFEN DUOMO (GFDM)     
1 45856U 20042A   23341.80136918  .00001059  00000+0  15808-3 0  9994
2 45856  97.8925  52.5511 0012691 185.3554 174.7523 14.76792205184879
BY70-2                  
1 45857U 20042B   23341.78989246  .00024570  00000+0  19248-2 0  9996
2 45857  97.9205  63.3219 0006689 146.5484 213.6163 15.00968734185478
ZINYUAN-3               
1 45939U 20051A   23341.78708607  .00005112  00000+0  23006-3 0  9996
2 45939  97.3867  57.0370 0012394 314.8377  45.1851 15.21466779187116
TIANQI-10               
1 45941U 20051C   23341.79860213  .00034785  00000+0  55123-3 0  9995
2 45941  97.4129  76.5615 0006425 220.7352 139.3421 15.53309905188296
Q-SAT                   
1 46026U 20054B   23341.75765970  .00032681  00000+0  54305-3 0  9997
2 46026  97.3562  66.3418 0007793 258.8551 101.1826 15.51987196186343
GLOBAL-8                
1 46089U 20055BQ  23341.54653221  .00048209  00000+0  48907-3 0  9993
2 46089  52.9856 147.2098 0002372 133.1744 226.9468 15.64760296194166
TIANTUO 5               
1 46234U 20058C   23341.78422144  .00005817  00000+0  18902-3 0  9992
2 46234  97.3317  36.2247 0013486 353.5316   6.5749 15.32221455183264
TYVAK-0172              
1 46267U 20059C   23341.50947985  .00008953  00000+0  73965-3 0  9998
2 46267  97.8465 177.2976 0004956 142.5227 217.6342 14.99186371177832
ION-MK01                
1 46274U 20061C   23341.16395945  .00007892  00000+0  31705-3 0  9991
2 46274  97.3291  43.8055 0006333  57.5033 302.6816 15.25191158180518
UPMSAT-2                
1 46276U 20061E   23341.54737637  .00008714  00000+0  32604-3 0  9996
2 46276  97.3267  45.7462 0002634  86.0478 274.1062 15.27547249180712
NEMO-HD                 
1 46277U 20061F   23341.75232454  .00004367  00000+0  18814-3 0  9994
2 46277  97.3268  44.1089 0003038  91.7511 268.4074 15.23092912180629
SIMBA                   
1 46279U 20061H   23341.15580261  .00029335  00000+0  90592-3 0  9997
2 46279  97.3821  47.0295 0002471 161.0649 199.0686 15.33498255180157
TRISAT                  
1 46280U 20061J   23341.60975263  .00021253  00000+0  70680-3 0  9996
2 46280  97.3717  46.3623 0002616 159.3922 200.7425 15.31187144180190
PICASSO-BEL             
1 46281U 20061K   23341.19966419  .00044434  00000+0  95680-3 0  9997
2 46281  97.3770  50.3193 0002678 151.2734 208.8662 15.44482881180403
DIDO 3                  
1 46284U 20061N   23341.18954975  .00014225  00000+0  57973-3 0  9991
2 46284  97.3792  44.1592 0002601 161.3743 198.7590 15.24566804179953
FLOCK 4V-14             
1 46286U 20061Q   23341.17023719  .00017034  00000+0  54254-3 0  9995
2 46286  97.3837  49.1777 0003186 132.2757 227.8755 15.32622190180304
AMICALSAT               
1 46287U 20061R   23341.17145442  .00014989  00000+0  58221-3 0  9998
2 46287  97.3796  44.8687 0002209 154.8525 205.2821 15.26164329180031
3CAT-5A                 
1 46292U 20061W   23341.15322858  .00005580  00000+0  27787-3 0  9990
2 46292  97.3788  41.7847 0003655 143.1567 216.9918 15.17972596179818
3CAT-5B                 
1 46293U 20061X   23341.16551483  .00005605  00000+0  27787-3 0  9998
2 46293  97.3795  42.0432 0003754 140.1408 220.0103 15.18122385179807
OSM-1 CICERO            
1 46294U 20061Y   23341.13537232  .00012026  00000+0  50544-3 0  9994
2 46294  97.3804  44.6226 0003418 133.4879 226.6643 15.23564335179994
TYVAK-0171              
1 46295U 20061Z   23341.14985715  .00119783  00000+0  16266-2 0  9999
2 46295  97.3852  54.3689 0002069 102.6372 257.5115 15.57209615180539
FLOCK 4V-10             
1 46296U 20061AA  23341.16685615  .00015771  00000+0  50251-3 0  9993
2 46296  97.3842  49.4085 0002055 129.6369 230.5054 15.32629000180275
FLOCK 4V-13             
1 46297U 20061AB  23341.48693002  .00010806  00000+0  34763-3 0  9992
2 46297  97.3835  49.7312 0001896  97.6566 262.4891 15.32414084180300
TTU100                  
1 46312U 20061AS  23341.75521587  .00025335  00000+0  74098-3 0  9996
2 46312  97.3851  50.1818 0003028  95.5625 264.5964 15.35248438180377
FLOCK 4V-4              
1 46314U 20061AU  23341.56476048  .07524970  24087-5  21008-2 0  9993
2 46314  97.3487  56.8751 0006935 301.4409  58.6206 16.27823498180842
LEMUR-2-SCHMIDTFALL     
1 46315U 20061AV  23339.23716134  .05562781  24320-5  18433-2 0  9996
2 46315  97.3637  63.0710 0008065 285.5640  74.4761 16.25822130181012
